H1 CPF 01  gfz 2021 02 25 13  5562 tandemx   
H2 1003001  6202 36605    2021 02 25 12 59 42 2021 03 02 00 00 42   120 1 1  0 0 0
H9
10 0 59273  19422.000000  0    2664179.775   -400370.550  -6347177.644
10 0 59273  19542.000000  0    1810982.564   -593688.331  -6626755.616
10 0 59273  19662.000000  0     923260.726   -761489.263  -6790740.877
10 0 59273  19782.000000  0      16871.360   -900406.436  -6836313.084
10 0 59273  19902.000000  0    -891964.139  -1007851.667  -6762688.157
10 0 59273  20022.000000  0   -1786942.956  -1082062.247  -6571130.685
10 0 59273  20142.000000  0   -2651967.119  -1122129.169  -6264934.423
10 0 59273  20262.000000  0   -3471426.098  -1128006.750  -5849370.635
10 0 59273  20382.000000  0   -4230474.558  -1100503.930  -5331608.527
10 0 59273  20502.000000  0   -4915303.009  -1041256.689  -4720603.079
10 0 59273  20622.000000  0   -5513393.245   -952682.142  -4026951.411
10 0 59273  20742.000000  0   -6013755.413   -837915.121  -3262719.667
10 0 59273  20862.000000  0   -6407141.665   -700727.697  -2441240.641
10 0 59273  20982.000000  0   -6686229.512   -545433.351  -1576885.067
10 0 59273  21102.000000  0   -6845771.553   -376778.523   -684810.694
10 0 59273  21222.000000  0   -6882705.660   -199821.895    219308.877
10 0 59273  21342.000000  0   -6796220.036    -19805.787   1119566.021
10 0 59273  21462.000000  0   -6587775.619    157976.318   2000106.883
10 0 59273  21582.000000  0   -6261081.977    328313.424   2845420.059
10 0 59273  21702.000000  0   -5822027.406    486208.699   3640618.632
10 0 59273  21822.000000  0   -5278564.781    627005.534   4371708.757
10 0 59273  21942.000000  0   -4640557.710    746504.412   5025838.993
10 0 59273  22062.000000  0   -3919590.962    841068.047   5591525.629
10 0 59273  22182.000000  0   -3128751.205    907712.618   6058851.500
10 0 59273  22302.000000  0   -2282381.344    944182.542   6419635.876
10 0 59273  22422.000000  0   -1395813.748    949008.422   6667572.602
10 0 59273  22542.000000  0    -485087.847    921546.614   6798333.298
10 0 59273  22662.000000  0     433340.625    861999.355   6809637.232
10 0 59273  22782.000000  0    1342895.975    771415.545   6701288.274
10 0 59273  22902.000000  0    2227180.464    651672.564   6475178.195
10 0 59273  23022.000000  0    3070269.071    505438.852   6135256.248
10 0 59273  23142.000000  0    3856997.915    336117.766   5687465.078
10 0 59273  23262.000000  0    4573240.262    147773.691   5139642.217
10 0 59273  23382.000000  0    5206165.382    -54958.707   4501388.879
10 0 59273  23502.000000  0    5744476.313   -266980.200   3783907.240
10 0 59273  23622.000000  0    6178621.856   -482844.716   2999807.245
10 0 59273  23742.000000  0    6500977.027   -696887.453   2162884.750
10 0 59273  23862.000000  0    6705985.033   -903360.454   1287875.159
10 0 59273  23982.000000  0    6790259.964  -1096572.370    390189.643
10 0 59273  24102.000000  0    6752648.296  -1271028.502   -514364.093
10 0 59273  24222.000000  0    6594242.813  -1421567.916  -1409870.225
10 0 59273  24342.000000  0    6318351.512  -1543493.351  -2280593.178
10 0 59273  24462.000000  0    5930421.818  -1632691.150  -3111261.370
10 0 59273  24582.000000  0    5437923.148  -1685738.238  -3887338.754
10 0 59273  24702.000000  0    4850191.881  -1699993.108  -4595279.480
10 0 59273  24822.000000  0    4178243.275  -1673669.241  -5222761.257
10 0 59273  24942.000000  0    3434554.285  -1605890.338  -5758893.489
10 0 59273  25062.000000  0    2632823.443  -1496725.504  -6194396.054
10 0 59273  25182.000000  0    1787714.908  -1347203.644  -6521748.767
10 0 59273  25302.000000  0     914589.092  -1159307.560  -6735310.883
10 0 59273  25422.000000  0      29225.821   -935949.036  -6831407.930
10 0 59273  25542.000000  0    -852455.697   -680924.141  -6808387.717
10 0 59273  25662.000000  0   -1714676.133   -398850.098  -6666645.789
10 0 59273  25782.000000  0   -2542072.349    -95083.508  -6408618.900
10 0 59273  25902.000000  0   -3319964.546    224377.776  -6038746.757
10 0 59273  26022.000000  0   -4034612.494    553008.590  -5563404.920
10 0 59273  26142.000000  0   -4673458.978    883884.466  -4990805.523
10 0 59273  26262.000000  0   -5225354.129   1209821.464  -4330867.793
10 0 59273  26382.000000  0   -5680758.768   1523527.444  -3595057.524
10 0 59273  26502.000000  0   -6031919.359   1817759.836  -2796196.176
10 0 59273  26622.000000  0   -6273011.948   2085486.394  -1948243.135
10 0 59273  26742.000000  0   -6400251.072   2320046.343  -1066053.879
10 0 59273  26862.000000  0   -6411959.972   2515307.500   -165117.252
10 0 59273  26982.000000  0   -6308598.773   2665814.634    738722.843
10 0 59273  27102.000000  0   -6092748.860   2766925.872   1629554.163
10 0 59273  27222.000000  0   -5769054.422   2814933.673   2491685.448
10 0 59273  27342.000000  0   -5344122.050   2807166.087   3309931.266
10 0 59273  27462.000000  0   -4826382.158   2742066.200   4069887.184
10 0 59273  27582.000000  0   -4225913.968   2619247.333   4758187.774
10 0 59273  27702.000000  0   -3554241.512   2439523.927   5362742.289
10 0 59273  27822.000000  0   -2824105.210   2204917.648   5872945.926
10 0 59273  27942.000000  0   -2049212.480   1918638.273   6279862.783
10 0 59273  28062.000000  0   -1243974.132   1585039.469   6576376.822
10 0 59273  28182.000000  0    -423232.554   1209551.078   6757309.005
10 0 59273  28302.000000  0     398011.965    798589.299   6819501.447
10 0 59273  28422.000000  0    1204874.636    359446.555   6761869.014
10 0 59273  28542.000000  0    1982854.702    -99837.359   6585416.928
10 0 59273  28662.000000  0    2718095.074   -570621.719   6293225.197
10 0 59273  28782.000000  0    3397629.905  -1043826.600   5890399.091
10 0 59273  28902.000000  0    4009616.493  -1510106.766   5383985.322
10 0 59273  29022.000000  0    4543545.873  -1960035.952   4782854.022
10 0 59273  29142.000000  0    4990429.091  -2384296.955   4097549.588
10 0 59273  29262.000000  0    5342957.340  -2773875.058   3340110.506
10 0 59273  29382.000000  0    5595629.803  -3120249.941   2523858.160
10 0 59273  29502.000000  0    5744844.834  -3415581.023   1663160.676
10 0 59273  29622.000000  0    5788954.870  -3652883.112    773176.513
10 0 59273  29742.000000  0    5728281.574  -3826186.518   -130419.977
10 0 59273  29862.000000  0    5565091.654  -3930677.814  -1031722.577
10 0 59273  29982.000000  0    5303532.563  -3962817.231  -1914883.103
10 0 59273  30102.000000  0    4949530.433  -3920429.299  -2764397.818
10 0 59273  30222.000000  0    4510653.387  -3802766.180  -3565384.917
10 0 59273  30342.000000  0    3995944.111  -3610541.304  -4303847.674
10 0 59273  30462.000000  0    3415726.527  -3345933.442  -4966917.397
10 0 59273  30582.000000  0    2781391.913  -3012560.940  -5543072.261
10 0 59273  30702.000000  0    2105170.439  -2615428.796  -6022327.733
10 0 59273  30822.000000  0    1399893.893  -2160850.877  -6396399.252
10 0 59273  30942.000000  0     678751.773  -1656346.146  -6658836.148
10 0 59273  31062.000000  0     -44953.682  -1110511.851  -6805121.825
10 0 59273  31182.000000  0    -758048.323   -532877.830  -6832742.147
10 0 59273  31302.000000  0   -1447719.818     66256.620  -6741223.445
10 0 59273  31422.000000  0   -2101742.695    676001.931  -6532139.224
10 0 59273  31542.000000  0   -2708689.853   1285070.872  -6209085.751
10 0 59273  31662.000000  0   -3258128.420   1881982.155  -5777627.200
10 0 59273  31782.000000  0   -3740798.792   2455272.530  -5245210.900
10 0 59273  31902.000000  0   -4148774.531   2993715.110  -4621050.699
10 0 59273  32022.000000  0   -4475598.124   3486539.030  -3915977.559
10 0 59273  32142.000000  0   -4716389.067   3923646.222  -3142261.368
10 0 59273  32262.000000  0   -4867923.894   4295821.508  -2313405.011
10 0 59273  32382.000000  0   -4928684.520   4594929.866  -1443912.274
10 0 59273  32502.000000  0   -4898874.054   4814097.147   -549034.321
10 0 59273  32622.000000  0   -4780398.006   4947868.832    355502.334
10 0 59273  32742.000000  0   -4576809.901   4992342.078   1253779.477
10 0 59273  32862.000000  0   -4293224.400   4945266.224   2129977.055
10 0 59273  32982.000000  0   -3936196.620   4806109.593   2968661.552
10 0 59273  33102.000000  0   -3513573.075   4576091.237   3755065.240
10 0 59273  33222.000000  0   -3034319.042   4258177.387   4475351.255
10 0 59273  33342.000000  0   -2508326.369   3857042.958   5116860.255
10 0 59273  33462.000000  0   -1946205.632   3378998.264   5668333.147
10 0 59273  33582.000000  0   -1359068.418   2831883.589   6120105.704
10 0 59273  33702.000000  0    -758304.607   2224934.169   6464272.341
10 0 59273  33822.000000  0    -155360.980   1568619.603   6694816.955
10 0 59273  33942.000000  0     438476.401    874460.757   6807713.156
10 0 59273  34062.000000  0    1012293.187    154826.186   6800989.524
10 0 59273  34182.000000  0    1555746.157   -577287.340   6674761.975
10 0 59273  34302.000000  0    2059249.064  -1308489.143   6431232.671
10 0 59273  34422.000000  0    2514141.810  -2025238.707   6074654.267
10 0 59273  34542.000000  0    2912841.368  -2714096.904   5611261.169
10 0 59273  34662.000000  0    3248970.902  -3361979.609   5049165.785
10 0 59273  34782.000000  0    3517464.591  -3956409.431   4398222.458
10 0 59273  34902.000000  0    3714647.546  -4485760.926   3669859.649
10 0 59273  35022.000000  0    3838287.349  -4939494.081   2876881.307
10 0 59273  35142.000000  0    3887616.378  -5308370.377   2033241.590
10 0 59273  35262.000000  0    3863324.292  -5584646.224   1153795.956
10 0 59273  35382.000000  0    3767520.118  -5762238.238    254033.391
10 0 59273  35502.000000  0    3603665.628  -5836856.280   -650202.980
10 0 59273  35622.000000  0    3376481.369  -5806102.471  -1543004.378
10 0 59273  35742.000000  0    3091825.791  -5669530.169  -2408684.917
10 0 59273  35862.000000  0    2756553.716  -5428664.545  -3232063.801
99
